NORAD_CAT_ID,OBJECT_NAME,OBJECT_TYPE,EPOCH,MEAN_MOTION,ECCENTRICITY,INCLINATION,RA_OF_ASC_NODE,ARG_OF_PERICENTER,MEAN_ANOMALY,BSTAR,MEAN_MOTION_DOT,MEAN_MOTION_DDOT,TLE_LINE0,TLE_LINE1,TLE_LINE2,SEMIMAJOR_AXIS,PERIOD,APOGEE,PERIGEE,DECAYED
37853,RAX-2,PAYLOAD,2022-05-13 11:15:50,15.08312861,0.0156393,101.7043,219.7488,191.4508,168.3132,0.00055507,0.00011325,0.0,0 RAX-2,1 37853U 11061D   22133.46933847  .00011325  00000-0  55507-3 0  9997,2 37853 101.7043 219.7488 0156393 191.4508 168.3132 15.08312861575891,6919.4919999999975,95.471,649.573,433.14099999999996,0.0
37853,RAX-2,PAYLOAD,2022-05-13 16:02:25,15.08316423,0.0156377,101.7042,220.0511,190.8718,168.9102,0.00053477,0.00010905,0.0,0 RAX-2,1 37853U 11061D   22133.66834858  .00010905  00000-0  53477-3 0  9998,2 37853 101.7042 220.0511 0156377 190.8718 168.9102 15.08316423575442,6919.481,95.471,649.5509999999998,433.14099999999996,0.0
37853,RAX-2,PAYLOAD,2022-05-14 04:46:36,15.08330548,0.0156312,101.7044,220.857,189.3095,170.5213,0.00060127,0.00012286,0.0,0 RAX-2,1 37853U 11061D   22134.19903872  .00012286  00000-0  60127-3 0  9994,2 37853 101.7044 220.8570 0156312 189.3095 170.5213 15.08330548575522,6919.438,95.47,649.462,433.144,0.0
37853,RAX-2,PAYLOAD,2022-05-14 19:06:19,15.08347195,0.015625200000000002,101.7046,221.7637,187.5445,172.3416,0.0006665,0.00013644,0.0,0 RAX-2,1 37853U 11061D   22134.79605918  .00013644  00000-0  66650-3 0  9996,2 37853 101.7046 221.7637 0156252 187.5445 172.3416 15.08347195576094,6919.387,95.469,649.369,433.135,0.0
37853,RAX-2,PAYLOAD,2022-05-15 12:37:03,15.08372093,0.0156227,101.7046,222.872,185.3767,174.5776,0.00080678,0.00016568,0.0,0 RAX-2,1 37853U 11061D   22135.52574058  .00016568  00000-0  80678-3 0  9992,2 37853 101.7046 222.8720 0156227 185.3767 174.5776 15.08372093575721,6919.311,95.46700000000001,649.274,433.07800000000003,0.0
37853,RAX-2,PAYLOAD,2022-05-15 18:59:09,15.08379843,0.015618100000000001,101.7048,223.2751,184.5921,175.3869,0.00078386,0.00016092,0.0,0 RAX-2,1 37853U 11061D   22135.79107687  .00016092  00000-0  78386-3 0  9996,2 37853 101.7048 223.2751 0156181 184.5921 175.3869 15.08379843575760,6919.2869999999975,95.46700000000001,649.2180000000002,433.086,0.0
37853,RAX-2,PAYLOAD,2022-05-16 04:32:16,15.08390281,0.015615500000000001,101.7049,223.8798,183.4087,176.6076,0.00069287,0.00014205,0.0,0 RAX-2,1 37853U 11061D   22136.18907830  .00014205  00000-0  69287-3 0  9992,2 37853 101.7049 223.8798 0156155 183.4087 176.6076 15.08390281576304,6919.255,95.46600000000001,649.168,433.07300000000004,0.0
37853,RAX-2,PAYLOAD,2022-05-16 12:29:52,15.08402905,0.0156107,101.7049,224.3836,182.4193,177.6283,0.00079969,0.00016429,0.0,0 RAX-2,1 37853U 11061D   22136.52074347  .00016429  00000-0  79969-3 0  9996,2 37853 101.7049 224.3836 0156107 182.4193 177.6283 15.08402905575876,6919.217,95.465,649.096,433.06800000000004,0.0
37853,RAX-2,PAYLOAD,2022-05-17 12:22:38,15.08435061,0.015601499999999999,101.705,225.8953,179.4466,180.6949,0.00083594,0.00017194,0.0,0 RAX-2,1 37853U 11061D   22137.51572580  .00017194  00000-0  83594-3 0  9997,2 37853 101.7050 225.8953 0156015 179.4466 180.6949 15.08435061576021,6919.118,95.463,648.932,433.035,0.0
37853,RAX-2,PAYLOAD,2022-05-18 04:17:48,15.08459997,0.0155987,101.7048,226.9033,177.4585,182.7457,0.00087504,0.0001802,0.0,0 RAX-2,1 37853U 11061D   22138.17903407  .00018020  00000-0  87504-3 0  9990,2 37853 101.7048 226.9033 0155987 177.4585 182.7457 15.08459997576128,6919.0419999999995,95.462,648.835,432.97900000000004,0.0
37853,RAX-2,PAYLOAD,2022-05-19 04:10:31,15.08494174,0.0155928,101.7044,228.4153,174.4696,185.8286,0.00084765,0.00017464,0.0,0 RAX-2,1 37853U 11061D   22139.17397779  .00017464  00000-0  84765-3 0  9997,2 37853 101.7044 228.4153 0155928 174.4696 185.8286 15.08494174576758,6918.938,95.459,648.688,432.917,0.0
37853,RAX-2,PAYLOAD,2022-05-19 12:08:05,15.08507031,0.015589700000000001,101.7046,228.9198,173.4778,186.8515,0.00093624,0.00019316,0.0,0 RAX-2,1 37853U 11061D   22139.50562056  .00019316  00000-0  93624-3 0  9998,2 37853 101.7046 228.9198 0155897 173.4778 186.8515 15.08507031576325,6918.898,95.459,648.627,432.9,0.0
37853,RAX-2,PAYLOAD,2022-05-20 12:00:46,15.08542592,0.0155864,101.7034,230.4302,170.513,189.9087,0.00091082,0.00018805,0.0,0 RAX-2,1 37853U 11061D   22140.50053270  .00018805  00000-0  91082-3 0  9991,2 37853 101.7034 230.4302 0155864 170.5130 189.9087 15.08542592576476,6918.79,95.456,648.494,432.816,0.0
37853,RAX-2,PAYLOAD,2022-05-20 16:47:17,15.08549591,0.015577700000000003,101.7036,230.7328,169.9649,190.4737,0.00090047,0.00018587,0.0,0 RAX-2,1 37853U 11061D   22140.69951241  .00018587  00000-0  90047-3 0  9993,2 37853 101.7036 230.7328 0155777 169.9649 190.4737 15.08549591576980,6918.768,95.456,648.4119999999998,432.855,0.0
37853,RAX-2,PAYLOAD,2022-05-21 05:31:22,15.08571369,0.0155756,101.7035,231.5388,168.3973,192.0897,0.00095776,0.00019794,0.0,0 RAX-2,1 37853U 11061D   22141.23011921  .00019794  00000-0  95776-3 0  9991,2 37853 101.7035 231.5388 0155756 168.3973 192.0897 15.08571369576583,6918.7019999999975,95.455,648.33,432.80400000000003,0.0
37853,RAX-2,PAYLOAD,2022-05-21 19:50:56,15.08595205,0.015556,101.7034,232.4455,166.6381,193.9025,0.00099945,0.00020666,0.0,0 RAX-2,1 37853U 11061D   22141.82704335  .00020666  00000-0  99945-3 0  9996,2 37853 101.7034 232.4455 0155560 166.6381 193.9025 15.08595205577156,6918.629,95.45299999999999,648.12,432.86800000000005,0.0
37853,RAX-2,PAYLOAD,2022-05-22 05:23:58,15.08607105,0.0155664,101.7042,233.051,165.4934,195.0824,0.00087708,0.00018123,0.0,0 RAX-2,1 37853U 11061D   22142.22498800  .00018123  00000-0  87708-3 0  9997,2 37853 101.7042 233.0510 0155664 165.4934 195.0824 15.08607105576736,6918.592,95.45200000000001,648.155,432.76,0.0
37853,RAX-2,PAYLOAD,2022-05-22 19:43:31,15.08632158,0.0155656,101.7039,233.958,163.7266,196.9028,0.00094721,0.00019604,0.0,0 RAX-2,1 37853U 11061D   22142.82189638  .00019604  00000-0  94721-3 0  9997,2 37853 101.7039 233.9580 0155656 163.7266 196.9028 15.08632158576820,6918.516,95.45100000000001,648.072,432.69,0.0
37853,RAX-2,PAYLOAD,2022-05-23 11:38:34,15.08655568,0.0155564,101.7039,234.9658,161.7687,198.9191,0.00090554,0.00018739,0.0,0 RAX-2,1 37853U 11061D   22143.48511833  .00018739  00000-0  90554-3 0  9994,2 37853 101.7039 234.9658 0155564 161.7687 198.9191 15.08655568577408,6918.444,95.449,647.935,432.68300000000005,0.0
37853,RAX-2,PAYLOAD,2022-05-23 19:36:05,15.08666424,0.015555700000000004,101.7039,235.4697,160.7902,199.9267,0.00083424,0.00017253,0.0,0 RAX-2,1 37853U 11061D   22143.81672509  .00017253  00000-0  83424-3 0  9997,2 37853 101.7039 235.4697 0155557 160.7902 199.9267 15.08666424576977,6918.411,95.449,647.8969999999998,432.655,0.0
37853,RAX-2,PAYLOAD,2022-05-24 11:31:06,15.08687842,0.015547799999999999,101.7039,236.4776,158.8271,201.9472,0.00079546,0.00016448,0.0,0 RAX-2,1 37853U 11061D   22144.47993170  .00016448  00000-0  79546-3 0  9995,2 37853 101.7039 236.4776 0155478 158.8271 201.9472 15.08687842577076,6918.346,95.447,647.776,432.645,0.0
37853,RAX-2,PAYLOAD,2022-05-24 19:28:36,15.08702301,0.015543399999999999,101.704,236.9815,157.8418,202.9611,0.00088491,0.00018326,0.0,0 RAX-2,1 37853U 11061D   22144.81153072  .00018326  00000-0  88491-3 0  9998,2 37853 101.7040 236.9815 0155434 157.8418 202.9611 15.08702301577604,6918.3009999999995,95.446,647.7,432.63199999999995,0.0
37853,RAX-2,PAYLOAD,2022-05-25 11:23:36,15.08722788,0.0155284,101.704,237.9895,155.8528,205.0066,0.00082751,0.00017125,0.0,0 RAX-2,1 37853U 11061D   22145.47472246  .00017125  00000-0  82751-3 0  9997,2 37853 101.7040 237.9895 0155284 155.8528 205.0066 15.08722788577223,6918.239000000001,95.445,647.533,432.675,0.0
37853,RAX-2,PAYLOAD,2022-05-25 19:21:05,15.08735008,0.015519499999999999,101.7043,238.4933,154.8542,206.0333,0.00083321,0.00017245,0.0,0 RAX-2,1 37853U 11061D   22145.80631424  .00017245  00000-0  83321-3 0  9996,2 37853 101.7043 238.4933 0155195 154.8542 206.0333 15.08735008577273,6918.201,95.444,647.433,432.699,0.0
37853,RAX-2,PAYLOAD,2022-05-26 04:54:04,15.08746969,0.015506,101.7046,239.0985,153.6573,207.2632,0.00077699,0.00016066,0.0,0 RAX-2,1 37853U 11061D   22146.20422151  .00016066  00000-0  77699-3 0  9997,2 37853 101.7046 239.0985 0155060 153.6573 207.2632 15.08746969577815,6918.165,95.443,647.303,432.75699999999995,0.0
37853,RAX-2,PAYLOAD,2022-05-26 11:16:04,15.08753998,0.01551,101.7044,239.502,152.8779,208.0645,0.0007266,0.00015017,0.0,0 RAX-2,1 37853U 11061D   22146.46949086  .00015017  00000-0  72660-3 0  9994,2 37853 101.7044 239.5020 0155100 152.8779 208.0645 15.08753998577376,6918.143,95.443,647.309,432.708,0.0
37853,RAX-2,PAYLOAD,2022-05-27 04:46:31,15.08774849,0.0154988,101.7052,240.6105,150.6875,210.3145,0.00064286,0.00013268,0.0,0 RAX-2,1 37853U 11061D   22147.19897506  .00013268  00000-0  64286-3 0  9995,2 37853 101.7052 240.6105 0154988 150.6875 210.3145 15.08774849577489,6918.08,95.44200000000001,647.1659999999998,432.723,0.0
37853,RAX-2,PAYLOAD,2022-05-27 19:05:58,15.08791344,0.015495400000000001,101.7053,241.5179,148.9027,212.1472,0.00064497,0.00013317,0.0,0 RAX-2,1 37853U 11061D   22147.79581835  .00013317  00000-0  64497-3 0  9995,2 37853 101.7053 241.5179 0154954 148.9027 212.1472 15.08791344578059,6918.029,95.441,647.092,432.69599999999997,0.0
37853,RAX-2,PAYLOAD,2022-05-28 12:36:24,15.08815271,0.015492500000000001,101.7052,242.6264,146.7225,214.3847,0.00075341,0.00015598,0.0,0 RAX-2,1 37853U 11061D   22148.52528317  .00015598  00000-0  75341-3 0  9996,2 37853 101.7052 242.6264 0154925 146.7225 214.3847 15.08815271577683,6917.956,95.439,646.997,432.645,0.0
37853,RAX-2,PAYLOAD,2022-05-28 20:33:52,15.0882218,0.0154922,101.7055,243.1304,145.733,215.3998,0.0006192999999999999,0.00012790000000000002,0.0,0 RAX-2,1 37853U 11061D   22148.85685483  .00012790  00000-0  61930-3 0  9990,2 37853 101.7055 243.1304 0154922 145.7330 215.3998 15.08822180578215,6917.935,95.439,646.974,432.626,0.0
